[{"OBJECT_NAME":"NORSAT 4","OBJECT_ID":"2025-009CX","EPOCH":"2026-03-09T18:37:49.764288","MEAN_MOTION":14.94638948,"ECCENTRICITY":0.00023654,"INCLINATION":97.7094,"RA_OF_ASC_NODE":149.232,"ARG_OF_PERICENTER":53.4991,"MEAN_ANOMALY":306.6447,"EPHEMERIS_TYPE":0,"CLASSIFICATION_TYPE":"U","NORAD_CAT_ID":62702,"ELEMENT_SET_NO":999,"REV_AT_EPOCH":6251,"BSTAR":0.00032689863,"MEAN_MOTION_DOT":3.485e-5,"MEAN_MOTION_DDOT":0},{"OBJECT_NAME":"MUSAT-3ALPHA","OBJECT_ID":"2025-135AX","EPOCH":"2026-03-09T21:45:39.051072","MEAN_MOTION":14.93579267,"ECCENTRICITY":0.00013641,"INCLINATION":97.7508,"RA_OF_ASC_NODE":184.2364,"ARG_OF_PERICENTER":294.2353,"MEAN_ANOMALY":65.8724,"EPHEMERIS_TYPE":0,"CLASSIFICATION_TYPE":"U","NORAD_CAT_ID":64573,"ELEMENT_SET_NO":999,"REV_AT_EPOCH":3906,"BSTAR":0.00023787476,"MEAN_MOTION_DOT":2.452e-5,"MEAN_MOTION_DDOT":0}]
